P/2019 GG21 (PANSTARRS),e,6.0860,340.5622,208.5891,7.468416,0.0482905,0.47169734,93.6494,08/30.0/2024,2000,g 12.0,4.0
# From MPEC 2022-M21
C/2019 H1 (NEOWISE),e,104.3738,269.3059,19.2810,235.6551,0.0002725,0.99218492,0.0000,04/27.4924/2019,2000,g 15.5,4.0
# From MPEC 2023-A50
C/2019 J1 (Lemmon),e,24.5268,98.2191,167.6395,67.10467,0.0017930,0.96297095,3.5368,08/30.0/2024,2000,g 12.0,4.0
# From MPEC 2021-R75
C/2019 J2 (Palomar),e,105.2440,25.5213,98.6068,160.7483,0.0004836,0.98931493,0.0000,07/20.8171/2019,2000,g 13.0,4.0
# From MPC117071
C/2019 J3 (ATLAS),h,08/02.3602/2019,131.3046,270.6471,16.5408,1.000231,2.364729,2000,13.5,4.0
# From MPEC 2022-M21
C/2019 JU6 (ATLAS),h,06/02.7111/2019,148.3192,21.7373,94.8781,1.000017,2.036464,2000,14.5,4.0
# From MPEC 2022-O08
C/2019 K1 (ATLAS),e,87.0155,73.3088,265.7557,3973,0.0000039,0.99949202,0.0000,02/11.7267/2020,2000,g 10.0,4.0
# From MPC119997
C/2019 K4 (Ye),e,105.2944,180.2255,139.9847,1553,0.0000161,0.99853504,0.0000,06/15.2696/2019,2000,g 12.5,4.0
# From MPEC 2021-P47
C/2019 K5 (Young),e,15.3054,177.2256,175.1519,169.6433,0.0004461,0.98791260,0.0000,06/22.2029/2019,2000,g 13.0,4.0
# From MPEC 2021-P47
C/2019 K6 (PANSTARRS),e,132.3812,42.9978,187.4879,1089,0.0000274,0.99640234,0.0000,05/19.2464/2020,2000,g 11.5,4.0
# From MPEC 2024-GJ3
C/2019 K7 (Smith),h,06/17.5146/2020,103.4989,308.0132,27.3935,1.000787,4.476845,2000,6.0,4.0
# From MPEC 2021-R75
C/2019 K8 (ATLAS),e,93.0766,291.0056,85.3624,1960,0.0000114,0.99836983,0.0000,07/21.0044/2019,2000,g 11.5,4.0
# From MPEC 2023-A50
C/2019 L1 (PANSTARRS),e,9.9741,254.4274,50.0459,9.827913,0.0319898,0.70452497,59.1267,08/30.0/2024,2000,g 13.5,4.0
# From MPC115886
C/2019 L2 (NEOWISE),e,152.1834,12.5648,18.8643,25.12983,0.0078238,0.93535803,15.4597,08/30.0/2024,2000,g 16.0,4.0
# From MPEC 2024-GJ3
P/2019 LD2 (ATLAS),e,11.5999,179.2784,117.5212,5.188948,0.0833845,0.12818449,138.5881,08/30.0/2024,2000,g  8.5,4.0
# From MPEC 2024-P23
C/2019 L3 (ATLAS),h,01/09.9298/2022,48.3444,290.7372,171.6880,1.002740,3.555933,2000,4.5,4.0
# From MPEC 2020-K19
P/2019 LM4 (Palomar),e,36.4182,72.8429,68.2569,5.703503,0.0723588,0.58563216,137.4237,08/30.0/2024,2000,g  9.5,4.0
# From MPC118095
C/2019 LB7 (Kleyna),e,164.2860,3.9433,336.7088,34.91953,0.0047764,0.92852646,9.4727,08/30.0/2024,2000,g 17.0,4.0
# From MPEC 2024-Q25
P/2019 M2 (ATLAS),e,12.2662,307.6082,332.5224,3.030252,0.1868469,0.64730321,354.5466,08/30.0/2024,2000,g 17.5,4.0
# From MPC118095
C/2019 M3 (ATLAS),e,99.5951,154.9981,87.9275,4723,0.0000030,0.99948653,0.0000,12/31.3068/2018,2000,g 12.2,4.0
# From MPEC 2023-JA2
C/2019 M4 (TESS),h,09/10.9727/2019,65.6794,52.6487,260.3636,1.001685,9.190826,2000,5.0,4.0
# From MPEC 2023-C45
C/2019 N1 (ATLAS),e,82.4709,13.5462,193.3630,1071,0.0000281,0.99840919,0.0000,11/30.7592/2020,2000,g  7.5,4.0
# From MPEC 2023-CD8
A/2019 N2,e,89.3370,276.2016,347.1305,1318,0.0000206,0.99852486,0.0000,08/22.5898/2019,2000,g 12.5,2.0
# From MPEC 2022-A21
C/2019 NJ3 (Lemmon),h,10/22.6642/2020,99.3705,142.4874,246.8886,1.001828,4.363167,2000,9.0,4.0
# From MPEC 2024-Q42
C/2019 O2 (PANSTARRS),e,93.3108,48.2586,129.5971,58.50662,0.0022024,0.83451429,1.1267,08/30.0/2024,2000,g  5.0,4.0
# From MPEC 2024-PC5
C/2019 O3 (Palomar),h,03/09.2944/2021,89.8060,300.4597,60.1245,1.003784,8.821305,2000,3.5,4.0
# From MPEC 2021-P47
A/2019 O4,e,115.0489,354.9287,61.8574,33.26520,0.0051371,0.89042604,8.5375,08/30.0/2024,2000,g 15.5,2.0
# From MPEC 2024-EF7
C/2019 Q1 (Lemmon),h,07/21.6451/2020,155.7297,42.4585,56.2526,1.001956,5.004942,2000,8.5,4.0
# From MPC117072
A/2019 Q2,e,159.0021,188.0669,176.4771,58.55572,0.0021996,0.97842570,0.0000,07/22.8711/2019,2000,g 18.0,2.0
# From MPC117072
P/2019 S2 (PANSTARRS),e,10.4641,93.1829,217.0424,4.745931,0.0953283,0.20486835,192.4840,08/30.0/2024,2000,g 13.5,4.0
# From MPEC 2022-CN4
P/2019 S3 (PANSTARRS),e,8.6935,150.1537,213.0793,3.415027,0.1561755,0.47091392,285.6446,08/30.0/2024,2000,g 18.3,4.0
# From MPEC 2021-S45
C/2019 S4 (Lemmon),e,92.1080,63.1584,71.3731,243.2739,0.0002598,0.98585553,0.0000,04/08.7500/2020,2000,g 11.0,4.0
# From MPEC 2023-N01
A/2019 T1,e,120.8502,6.9409,91.0293,38.83077,0.0040732,0.88983674,5.3888,08/30.0/2024,2000,g 13.0,2.0
# From MPEC 2023-R20
C/2019 T2 (Lemmon),e,111.4176,155.6564,239.4135,4686,0.0000031,0.99943568,0.0000,04/22.6708/2021,2000,g  9.0,4.0
# From MPEC 2023-UR6
C/2019 T3 (ATLAS),e,121.8528,139.5352,112.4710,3548,0.0000047,0.99832201,0.0000,03/04.3916/2021,2000,g  6.8,4.0
# From MPEC 2024-Q42
C/2019 T4 (ATLAS),e,53.6275,199.9266,351.1199,883.5573,0.0000375,0.99520189,0.0000,06/08.6712/2022,2000,g  5.0,4.0
# From MPEC 2021-P47
P/2019 T5 (ATLAS),e,33.4988,247.6112,189.5966,8.003406,0.0435303,0.80982963,80.7089,08/30.0/2024,2000,g 15.0,4.0
# From MPEC 2021-P47
P/2019 T6 (PANSTARRS),e,18.7001,71.2441,329.0332,5.440904,0.0776600,0.62287405,136.3652,08/30.0/2024,2000,g 15.5,4.0
# From MPC118096
P/2019 U4 (PANSTARRS),e,11.6970,200.0147,181.0576,3.519495,0.1492738,0.47590450,269.4790,08/30.0/2024,2000,g 19.0,4.0
# From MPEC 2024-LE0
C/2019 U5 (PANSTARRS),h,03/29.6410/2023,113.5133,2.6276,181.4626,1.000692,3.623857,2000,4.5,4.0
# From MPEC 2022-H04
C/2019 U6 (Lemmon),e,60.9667,235.7872,329.4729,313.0524,0.0001779,0.99709422,0.0000,06/18.2546/2020,2000,g 10.0,4.0
# From MPEC 2022-N37
C/2019 V1 (Borisov),e,61.9434,83.1491,51.1755,1997,0.0000110,0.99845119,0.0000,07/17.0126/2020,2000,g 11.0,4.0
# From MPEC 2022-L66
P/2019 V2 (Groeller),e,11.8070,189.1650,335.6320,7.495131,0.0480325,0.33149129,67.8822,08/30.0/2024,2000,g 10.0,4.0
# From MPEC 2023-A50
P/2019 W1 (PANSTARRS),e,23.4724,35.3734,18.8265,4.548683,0.1015958,0.26730357,196.8903,08/30.0/2024,2000,g 12.9,4.0
# From MPEC 2021-P47
P/2019 X1 (Pruyne),e,10.2492,43.6798,36.8955,6.176989,0.0642006,0.30396780,119.6816,08/30.0/2024,2000,g 10.4,4.0
# From MPEC 2020-C98
P/2019 X2 (Pan-STARRS),e,15.8953,250.8403,213.4685,3.635330,0.1421963,0.50027515,245.2005,08/30.0/2024,2000,g 18.0,4.0
# From MPC119999
C/2019 Y1 (ATLAS),e,73.3518,31.5247,57.9069,87.61575,0.0012018,0.99055893,0.0000,03/16.7408/2020,2000,g 13.7,4.0
# From MPEC 2020-K19
P/2019 Y2 (Fuls),e,4.8765,80.2426,93.3719,3.487747,0.1513166,0.37658150,254.8225,08/30.0/2024,2000,g  9.0,4.0
# From MPEC 2020-C98
P/2019 Y3 (Catalina),e,24.5980,139.2945,2.5703,3.015255,0.1882426,0.69115316,325.1420,08/30.0/2024,2000,g 18.5,4.0
# From MPEC 2024-A43
C/2019 Y4 (ATLAS),e,45.0337,120.7476,177.4334,346.1531,0.0001530,0.99925837,0.0000,05/30.2989/2020,2000,g 11.8,6.0
# From MPEC 2020-L06
C/2019 Y4-A (ATLAS),h,05/30.3389/2020,45.4718,121.1129,177.2667,1.001397,0.254877,2000,11.6,6.0
# From MPEC 2023-J29
C/2019 Y4-B (ATLAS),e,45.1631,120.8549,177.3776,26049,0.0000002,0.99999017,0.0000,05/30.3092/2020,2000,g 12.1,6.0
# From MPEC 2020-L06
C/2019 Y4-C (ATLAS),h,05/30.2910/2020,45.2550,120.8400,177.2998,1.002124,0.255952,2000,12.7,6.0
# From MPEC 2020-L06
C/2019 Y4-D (ATLAS),e,45.3047,121.2063,177.4401,67.90185,0.0017615,0.99624078,0.0000,05/30.4053/2020,2000,g 12.5,6.0
# From MPEC 2023-A50
C/2019 Y5 (PANSTARRS),e,82.7624,51.7516,303.6257,706.9755,0.0000524,0.99302926,0.0000,08/17.1866/2019,2000,g 11.0,4.0
# From MPEC 2023-A50
A/2020 A1,e,149.0326,119.1145,302.4157,25.50343,0.0076526,0.93459708,13.2682,08/30.0/2024,2000,g 18.0,2.0
# From MPEC 2022-YN2
C/2020 A2 (Iwamoto),e,120.5416,286.2231,68.0248,1101,0.0000270,0.99911532,0.0000,01/07.9222/2020,2000,g 13.5,4.0
# From MPEC 2023-A50
C/2020 A3 (ATLAS),e,146.6368,120.8029,268.2801,22496,0.0000003,0.99974421,0.0000,06/28.0180/2019,2000,g  8.0,4.0
# From MPEC 2022-P91
P/2020 A4 (PANSTARRS-Lemmon),e,24.9962,312.3208,144.8298,8.198288,0.0419874,0.65442553,73.1037,08/30.0/2024,2000,g 15.0,4.0
# From MPEC 2020-N08
A/2020 B1,e,18.5303,309.8660,154.7926,51.77719,0.0026454,0.96642536,4.5180,08/30.0/2024,2000,g 21.0,2.0
# From MPEC 2020-HN5
C/2020 B2 (Lemmon),e,55.7524,354.2409,143.5964,67.69982,0.0017694,0.95927393,2.9674,08/30.0/2024,2000,g 10.0,4.0
# From MPEC 2022-N37
C/2020 B3 (Rankin),e,20.7076,185.8018,324.8874,968.7668,0.0000327,0.99656281,0.0000,10/20.0780/2019,2000,g 13.0,4.0
# From MPEC 2023-KD6
P/2020 B4 (Sheppard),e,11.6059,185.9678,341.9872,7.969490,0.0438085,0.19240251,44.4996,08/30.0/2024,2000,g 10.5,4.0
# From MPEC 2024-PC5
C/2020 F2 (ATLAS),h,07/13.4402/2022,163.5895,250.3040,48.2723,1.004010,8.814447,2000,4.5,4.0
# From MPEC 2021-O56
C/2020 F3 (NEOWISE),e,129.1537,61.0972,37.3863,387.5742,0.0001292,0.99923982,0.0000,07/04.3936/2020,2000,g  7.5,5.2
# From MPEC 2024-BE0
C/2020 F5 (MASTER),e,52.2160,350.5134,310.6635,168.0445,0.0004524,0.97425180,0.0000,03/16.7270/2021,2000,g  6.5,3.2
# From MPEC 2020-L06
C/2020 F6 (PANSTARRS),e,174.5834,207.8786,344.4186,365.0227,0.0001413,0.99041241,0.0000,04/11.1550/2020,2000,g 14.5,2.8
# From MPEC 2024-A43
C/2020 F7 (Lemmon),e,93.9654,321.8410,227.9567,554.4953,0.0000755,0.99038189,0.0000,11/13.6417/2021,2000,g  7.0,4.0
# From MPEC 2023-J29
C/2020 F8 (SWAN),h,05/26.5346/2020,110.5605,259.8074,68.0782,1.000110,0.430842,2000,10.0,4.0
# From MPEC 2020-L06
P/2020 G1 (Pimentel),e,18.5117,240.1110,207.6229,3.607393,0.1438513,0.86074099,233.8171,08/30.0/2024,2000,g 17.0,4.0
# From MPEC 2022-YB4
C/2020 H2 (Pruyne),e,124.8114,277.6713,26.6122,182.4638,0.0003999,0.99545587,0.0000,04/27.5073/2020,2000,g 14.0,3.2
# From MPEC 2020-HM1
C/2020 H3 (Wierzchos),p,06/05.7162/2020,62.5292,30.4456,2.300288,270.6227,2000,13.5,4.0
# From MPEC 2020-L06
C/2020 H4 (Leonard),e,84.4953,307.5390,117.5333,47.81800,0.0029807,0.98065026,0.0000,08/29.5129/2020,2000,g 15.0,3.2
# From MPEC 2024-P23
C/2020 H5 (Robinson),e,70.2474,210.6245,326.2826,4890,0.0000029,0.99809036,0.0000,12/10.0390/2020,2000,g  5.0,4.0
# From MPEC 2024-JU4
C/2020 H6 (ATLAS),e,79.9798,213.7126,20.2327,2655,0.0000072,0.99823025,0.0000,09/29.9967/2021,2000,g  8.0,3.2
# From MPEC 2020-KB7
C/2020 H7 (Lemmon),e,135.9235,323.5194,82.6780,1405,0.0000187,0.99685380,0.0000,06/02.9510/2020,2000,g 11.0,4.0
# From MPEC 2021-N06
